COSMOS 2058             
1 20465U 90010A   26085.92784890  .00005007  00000+0  29421-3 0  9997
2 20465  82.4684  30.4411 0007426 276.4940  83.5445 15.11473009944844
SL-14 R/B               
1 20466U 90010B   26086.15548851  .00000499  00000+0  57602-4 0  9992
2 20466  82.4994 250.9775 0018508 240.2294 119.7080 14.83584383931079
SL-14 R/B               
1 20511U 90018B   26085.71750333  .00000440  00000+0  52147-4 0  9997
2 20511  82.5234 207.1767 0017088  40.1511 320.0962 14.82161327925105
HST                     
1 20580U 90037B   26085.90624310  .00007858  00000+0  25716-3 0  9991
2 20580  28.4722 282.5326 0001596 328.3479  31.7020 15.29741910775952
SL-16 R/B               
1 20625U 90046B   26085.94600390  .00000269  00000+0  16349-3 0  9998
2 20625  70.9971 261.6690 0016293 276.9757  82.9512 14.15014940850834
COSMOS 2084             
1 20663U 90055A   26085.92276926  .00002607  00000+0  19277-3 0  9993
2 20663  62.7892 276.7967 0014357 195.2475 164.8195 15.05742070938915
SL-6 R/B(2)             
1 20666U 90055D   26085.72952974  .00001823  00000+0  14607-3 0  9999
2 20666  62.7831 195.8996 0027587 350.9704   9.0896 15.03674812940757
SL-8 R/B                
1 20775U 90078B   26085.90898722  .00013317  00000+0  39440-3 0  9998
2 20775  82.9018 235.8155 0358755 315.9447  41.3686 14.89584455811861
SL-8 R/B                
1 21088U 91006B   26086.19372953  .00000077  00000+0  61942-4 0  9995
2 21088  82.9448 157.0326 0021953 349.8334  28.4112 13.77496832766483
OKEAN-3                 
1 21397U 91039A   26086.10019359  .00002149  00000+0  14976-3 0  9999
2 21397  82.5165 319.9750 0012312 272.2560  87.7257 15.04905269867657
COSMOS 2151             
1 21422U 91042A   26086.22600509  .00002557  00000+0  20234-3 0  9995
2 21422  82.4944  66.7547 0012605   8.5922 351.5515 15.00177198865822
SL-14 R/B               
1 21423U 91042B   26085.70663196  .00000460  00000+0  55142-4 0  9997
2 21423  82.4954 204.2280 0017033 180.3166 179.8041 14.81846195855592
