CCSDS_OMM_VERS = 2.0
CREATION_DATE  = 
ORIGINATOR     = 

OBJECT_NAME    = COSMOS 2058
OBJECT_ID      = 1990-010A
CENTER_NAME    = EARTH
REF_FRAME      = TEME
TIME_SYSTEM    = UTC
MEAN_ELEMENT_THEORY = SGP/SGP4

EPOCH          = 2026-03-26T22:16:06.144960
MEAN_MOTION    = 15.11473009
ECCENTRICITY   = .0007426
INCLINATION    = 82.4684
RA_OF_ASC_NODE = 30.4411
ARG_OF_PERICENTER = 276.4940
MEAN_ANOMALY   = 83.5445

EPHEMERIS_TYPE = 0
CLASSIFICATION_TYPE = U
NORAD_CAT_ID   = 20465
ELEMENT_SET_NO = 999
REV_AT_EPOCH   = 94484
BSTAR          = .29421E-3
MEAN_MOTION_DOT = .5007E-4
MEAN_MOTION_DDOT = 0

CCSDS_OMM_VERS = 2.0
CREATION_DATE  = 
ORIGINATOR     = 

OBJECT_NAME    = SL-14 R/B
OBJECT_ID      = 1990-010B
CENTER_NAME    = EARTH
REF_FRAME      = TEME
TIME_SYSTEM    = UTC
MEAN_ELEMENT_THEORY = SGP/SGP4

EPOCH          = 2026-03-27T03:43:54.207264
MEAN_MOTION    = 14.83584383
ECCENTRICITY   = .0018508
INCLINATION    = 82.4994
RA_OF_ASC_NODE = 250.9775
ARG_OF_PERICENTER = 240.2294
MEAN_ANOMALY   = 119.7080

EPHEMERIS_TYPE = 0
CLASSIFICATION_TYPE = U
NORAD_CAT_ID   = 20466
ELEMENT_SET_NO = 999
REV_AT_EPOCH   = 93107
BSTAR          = .57602E-4
MEAN_MOTION_DOT = .499E-5
MEAN_MOTION_DDOT = 0

CCSDS_OMM_VERS = 2.0
CREATION_DATE  = 
ORIGINATOR     = 

OBJECT_NAME    = SL-14 R/B
OBJECT_ID      = 1990-018B
CENTER_NAME    = EARTH
REF_FRAME      = TEME
TIME_SYSTEM    = UTC
MEAN_ELEMENT_THEORY = SGP/SGP4

EPOCH          = 2026-03-26T17:13:12.287712
MEAN_MOTION    = 14.82161327
ECCENTRICITY   = .0017088
INCLINATION    = 82.5234
RA_OF_ASC_NODE = 207.1767
ARG_OF_PERICENTER = 40.1511
MEAN_ANOMALY   = 320.0962

EPHEMERIS_TYPE = 0
CLASSIFICATION_TYPE = U
NORAD_CAT_ID   = 20511
ELEMENT_SET_NO = 999
REV_AT_EPOCH   = 92510
BSTAR          = .52147456E-4
MEAN_MOTION_DOT = .44E-5
MEAN_MOTION_DDOT = 0

CCSDS_OMM_VERS = 2.0
CREATION_DATE  = 
ORIGINATOR     = 

OBJECT_NAME    = HST
OBJECT_ID      = 1990-037B
CENTER_NAME    = EARTH
REF_FRAME      = TEME
TIME_SYSTEM    = UTC
MEAN_ELEMENT_THEORY = SGP/SGP4

EPOCH          = 2026-03-26T21:44:59.403840
MEAN_MOTION    = 15.29741910
ECCENTRICITY   = .0001596
INCLINATION    = 28.4722
RA_OF_ASC_NODE = 282.5326
ARG_OF_PERICENTER = 328.3479
MEAN_ANOMALY   = 31.7020

EPHEMERIS_TYPE = 0
CLASSIFICATION_TYPE = U
NORAD_CAT_ID   = 20580
ELEMENT_SET_NO = 999
REV_AT_EPOCH   = 77595
BSTAR          = .25716E-3
MEAN_MOTION_DOT = .7858E-4
MEAN_MOTION_DDOT = 0

CCSDS_OMM_VERS = 2.0
CREATION_DATE  = 
ORIGINATOR     = 

OBJECT_NAME    = SL-16 R/B
OBJECT_ID      = 1990-046B
CENTER_NAME    = EARTH
REF_FRAME      = TEME
TIME_SYSTEM    = UTC
MEAN_ELEMENT_THEORY = SGP/SGP4

EPOCH          = 2026-03-26T22:42:14.736960
MEAN_MOTION    = 14.15014940
ECCENTRICITY   = .0016293
INCLINATION    = 70.9971
RA_OF_ASC_NODE = 261.6690
ARG_OF_PERICENTER = 276.9757
MEAN_ANOMALY   = 82.9512

EPHEMERIS_TYPE = 0
CLASSIFICATION_TYPE = U
NORAD_CAT_ID   = 20625
ELEMENT_SET_NO = 999
REV_AT_EPOCH   = 85083
BSTAR          = .16349E-3
MEAN_MOTION_DOT = .269E-5
MEAN_MOTION_DDOT = 0

CCSDS_OMM_VERS = 2.0
CREATION_DATE  = 
ORIGINATOR     = 

OBJECT_NAME    = COSMOS 2084
OBJECT_ID      = 1990-055A
CENTER_NAME    = EARTH
REF_FRAME      = TEME
TIME_SYSTEM    = UTC
MEAN_ELEMENT_THEORY = SGP/SGP4

EPOCH          = 2026-03-26T22:08:47.264064
MEAN_MOTION    = 15.05742070
ECCENTRICITY   = .0014357
INCLINATION    = 62.7892
RA_OF_ASC_NODE = 276.7967
ARG_OF_PERICENTER = 195.2475
MEAN_ANOMALY   = 164.8195

EPHEMERIS_TYPE = 0
CLASSIFICATION_TYPE = U
NORAD_CAT_ID   = 20663
ELEMENT_SET_NO = 999
REV_AT_EPOCH   = 93891
BSTAR          = .19277E-3
MEAN_MOTION_DOT = .2607E-4
MEAN_MOTION_DDOT = 0

CCSDS_OMM_VERS = 2.0
CREATION_DATE  = 
ORIGINATOR     = 

OBJECT_NAME    = SL-6 R/B(2)
OBJECT_ID      = 1990-055D
CENTER_NAME    = EARTH
REF_FRAME      = TEME
TIME_SYSTEM    = UTC
MEAN_ELEMENT_THEORY = SGP/SGP4

EPOCH          = 2026-03-26T17:30:31.369536
MEAN_MOTION    = 15.03674812
ECCENTRICITY   = .00275878
INCLINATION    = 62.7831
RA_OF_ASC_NODE = 195.8996
ARG_OF_PERICENTER = 350.9704
MEAN_ANOMALY   = 9.0896

EPHEMERIS_TYPE = 0
CLASSIFICATION_TYPE = U
NORAD_CAT_ID   = 20666
ELEMENT_SET_NO = 999
REV_AT_EPOCH   = 94075
BSTAR          = .14607012E-3
MEAN_MOTION_DOT = .1823E-4
MEAN_MOTION_DDOT = 0

CCSDS_OMM_VERS = 2.0
CREATION_DATE  = 
ORIGINATOR     = 

OBJECT_NAME    = SL-8 R/B
OBJECT_ID      = 1990-078B
CENTER_NAME    = EARTH
REF_FRAME      = TEME
TIME_SYSTEM    = UTC
MEAN_ELEMENT_THEORY = SGP/SGP4

EPOCH          = 2026-03-26T21:48:56.495808
MEAN_MOTION    = 14.89584455
ECCENTRICITY   = .03587554
INCLINATION    = 82.9018
RA_OF_ASC_NODE = 235.8155
ARG_OF_PERICENTER = 315.9447
MEAN_ANOMALY   = 41.3686

EPHEMERIS_TYPE = 0
CLASSIFICATION_TYPE = U
NORAD_CAT_ID   = 20775
ELEMENT_SET_NO = 999
REV_AT_EPOCH   = 81186
BSTAR          = .39440095E-3
MEAN_MOTION_DOT = .13317E-3
MEAN_MOTION_DDOT = 0

CCSDS_OMM_VERS = 2.0
CREATION_DATE  = 
ORIGINATOR     = 

OBJECT_NAME    = SL-8 R/B
OBJECT_ID      = 1991-006B
CENTER_NAME    = EARTH
REF_FRAME      = TEME
TIME_SYSTEM    = UTC
MEAN_ELEMENT_THEORY = SGP/SGP4

EPOCH          = 2026-03-27T04:38:58.231392
MEAN_MOTION    = 13.77496832
ECCENTRICITY   = .0021953
INCLINATION    = 82.9448
RA_OF_ASC_NODE = 157.0326
ARG_OF_PERICENTER = 349.8334
MEAN_ANOMALY   = 28.4112

EPHEMERIS_TYPE = 0
CLASSIFICATION_TYPE = U
NORAD_CAT_ID   = 21088
ELEMENT_SET_NO = 999
REV_AT_EPOCH   = 76648
BSTAR          = .61942E-4
MEAN_MOTION_DOT = .77E-6
MEAN_MOTION_DDOT = 0

CCSDS_OMM_VERS = 2.0
CREATION_DATE  = 
ORIGINATOR     = 

OBJECT_NAME    = OKEAN-3
OBJECT_ID      = 1991-039A
CENTER_NAME    = EARTH
REF_FRAME      = TEME
TIME_SYSTEM    = UTC
MEAN_ELEMENT_THEORY = SGP/SGP4

EPOCH          = 2026-03-27T02:24:16.726176
MEAN_MOTION    = 15.04905269
ECCENTRICITY   = .0012312
INCLINATION    = 82.5165
RA_OF_ASC_NODE = 319.9750
ARG_OF_PERICENTER = 272.2560
MEAN_ANOMALY   = 87.7257

EPHEMERIS_TYPE = 0
CLASSIFICATION_TYPE = U
NORAD_CAT_ID   = 21397
ELEMENT_SET_NO = 999
REV_AT_EPOCH   = 86765
BSTAR          = .14976E-3
MEAN_MOTION_DOT = .2149E-4
MEAN_MOTION_DDOT = 0

CCSDS_OMM_VERS = 2.0
CREATION_DATE  = 
ORIGINATOR     = 

OBJECT_NAME    = COSMOS 2151
OBJECT_ID      = 1991-042A
CENTER_NAME    = EARTH
REF_FRAME      = TEME
TIME_SYSTEM    = UTC
MEAN_ELEMENT_THEORY = SGP/SGP4

EPOCH          = 2026-03-27T05:25:26.839776
MEAN_MOTION    = 15.00177198
ECCENTRICITY   = .0012605
INCLINATION    = 82.4944
RA_OF_ASC_NODE = 66.7547
ARG_OF_PERICENTER = 8.5922
MEAN_ANOMALY   = 351.5515

EPHEMERIS_TYPE = 0
CLASSIFICATION_TYPE = U
NORAD_CAT_ID   = 21422
ELEMENT_SET_NO = 999
REV_AT_EPOCH   = 86582
BSTAR          = .20234E-3
MEAN_MOTION_DOT = .2557E-4
MEAN_MOTION_DDOT = 0

CCSDS_OMM_VERS = 2.0
CREATION_DATE  = 
ORIGINATOR     = 

OBJECT_NAME    = SL-14 R/B
OBJECT_ID      = 1991-042B
CENTER_NAME    = EARTH
REF_FRAME      = TEME
TIME_SYSTEM    = UTC
MEAN_ELEMENT_THEORY = SGP/SGP4

EPOCH          = 2026-03-26T16:57:33.001344
MEAN_MOTION    = 14.81846195
ECCENTRICITY   = .00170332
INCLINATION    = 82.4954
RA_OF_ASC_NODE = 204.2280
ARG_OF_PERICENTER = 180.3166
MEAN_ANOMALY   = 179.8041

EPHEMERIS_TYPE = 0
CLASSIFICATION_TYPE = U
NORAD_CAT_ID   = 21423
ELEMENT_SET_NO = 999
REV_AT_EPOCH   = 85559
BSTAR          = .55142067E-4
MEAN_MOTION_DOT = .46E-5
MEAN_MOTION_DDOT = 0

